{
  "type": "FeatureCollection",
  "features": [
    {
      "type": "Feature",
      "properties": {
        "norad_id": 36083,
        "name": "IRIDIUM 33 DEB",
        "group": "iridium-33-debris",
        "lat": 81.19780927543931,
        "lon": 54.22470732848759,
        "alt_km": 745.8288862999034,
        "timestamp": "2025-12-22T18:58:53.818646+00:00",
        "meta_object_name": "IRIDIUM 33 DEB",
        "meta_object_id": "1997-051VQ",
        "meta_epoch": "2025-12-21T09:19:18.145344",
        "meta_mean_motion": 14.43234813,
        "meta_eccentricity": 0.00261912,
        "meta_inclination": 86.3424,
        "meta_ra_of_asc_node": 30.4295,
        "meta_arg_of_pericenter": 193.4541,
        "meta_mean_anomaly": 166.5965,
        "meta_ephemeris_type": 0,
        "meta_classification_type": "U",
        "meta_norad_cat_id": 36083,
        "meta_element_set_no": 999,
        "meta_rev_at_epoch": 85574,
        "meta_bstar": 0.00039895396,
        "meta_mean_motion_dot": 1.367e-05,
        "meta_mean_motion_ddot": 0,
        "tle_line1": "1 36083U 97051VQ  25355.38840446  .00001367  00000+0  39895-3 0  9992",
        "tle_line2": "2 36083  86.3424  30.4295 0026191 193.4541 166.5965 14.43234813855748"
      },
      "geometry": {
        "type": "Point",
        "coordinates": [
          54.22470732848759,
          81.19780927543931
        ]
      }
    },
    {
      "type": "Feature",
      "properties": {
        "norad_id": 36390,
        "name": "IRIDIUM 33 DEB",
        "group": "iridium-33-debris",
        "lat": -78.32193189184429,
        "lon": -83.50085701085757,
        "alt_km": 676.6495263513152,
        "timestamp": "2025-12-22T18:58:53.818657+00:00",
        "meta_object_name": "IRIDIUM 33 DEB",
        "meta_object_id": "1997-051VU",
        "meta_epoch": "2025-12-22T03:02:43.455840",
        "meta_mean_motion": 14.73721752,
        "meta_eccentricity": 0.00320639,
        "meta_inclination": 86.292,
        "meta_ra_of_asc_node": 295.0892,
        "meta_arg_of_pericenter": 130.5813,
        "meta_mean_anomaly": 229.8203,
        "meta_ephemeris_type": 0,
        "meta_classification_type": "U",
        "meta_norad_cat_id": 36390,
        "meta_element_set_no": 999,
        "meta_rev_at_epoch": 66400,
        "meta_bstar": 0.0010853374,
        "meta_mean_motion_dot": 7.17e-05,
        "meta_mean_motion_ddot": 0,
        "tle_line1": "1 36390U 97051VU  25356.12689185  .00007170  00000+0  10853-2 0  9997",
        "tle_line2": "2 36390  86.2920 295.0892 0032063 130.5813 229.8203 14.73721752664001"
      },
      "geometry": {
        "type": "Point",
        "coordinates": [
          -83.50085701085757,
          -78.32193189184429
        ]
      }
    },
    {
      "type": "Feature",
      "properties": {
        "norad_id": 36483,
        "name": "IRIDIUM 33 DEB",
        "group": "iridium-33-debris",
        "lat": -20.272745990187822,
        "lon": 46.846594563549,
        "alt_km": 748.360507308098,
        "timestamp": "2025-12-22T18:58:53.818667+00:00",
        "meta_object_name": "IRIDIUM 33 DEB",
        "meta_object_id": "1997-051VZ",
        "meta_epoch": "2025-12-21T21:28:56.984736",
        "meta_mean_motion": 14.45839576,
        "meta_eccentricity": 0.00113894,
        "meta_inclination": 86.3785,
        "meta_ra_of_asc_node": 48.5705,
        "meta_arg_of_pericenter": 100.875,
        "meta_mean_anomaly": 259.3734,
        "meta_ephemeris_type": 0,
        "meta_classification_type": "U",
        "meta_norad_cat_id": 36483,
        "meta_element_set_no": 999,
        "meta_rev_at_epoch": 65278,
        "meta_bstar": 0.00044994046,
        "meta_mean_motion_dot": 1.617e-05,
        "meta_mean_motion_ddot": 0,
        "tle_line1": "1 36483U 97051VZ  25355.89510399  .00001617  00000+0  44994-3 0  9997",
        "tle_line2": "2 36483  86.3785  48.5705 0011389 100.8750 259.3734 14.45839576652788"
      },
      "geometry": {
        "type": "Point",
        "coordinates": [
          46.846594563549,
          -20.272745990187822
        ]
      }
    },
    {
      "type": "Feature",
      "properties": {
        "norad_id": 36490,
        "name": "IRIDIUM 33 DEB",
        "group": "iridium-33-debris",
        "lat": -77.10895974673085,
        "lon": -157.94394254113516,
        "alt_km": 651.718640336193,
        "timestamp": "2025-12-22T18:58:53.818678+00:00",
        "meta_object_name": "IRIDIUM 33 DEB",
        "meta_object_id": "1997-051WG",
        "meta_epoch": "2025-12-20T18:38:39.578208",
        "meta_mean_motion": 14.76343752,
        "meta_eccentricity": 0.00052455,
        "meta_inclination": 86.365,
        "meta_ra_of_asc_node": 6.8378,
        "meta_arg_of_pericenter": 65.8032,
        "meta_mean_anomaly": 294.3734,
        "meta_ephemeris_type": 0,
        "meta_classification_type": "U",
        "meta_norad_cat_id": 36490,
        "meta_element_set_no": 999,
        "meta_rev_at_epoch": 86603,
        "meta_bstar": 0.00097886565,
        "meta_mean_motion_dot": 6.818e-05,
        "meta_mean_motion_ddot": 0,
        "tle_line1": "1 36490U 97051WG  25354.77684697  .00006818  00000+0  97887-3 0  9991",
        "tle_line2": "2 36490  86.3650   6.8378 0005245  65.8032 294.3734 14.76343752866031"
      },
      "geometry": {
        "type": "Point",
        "coordinates": [
          -157.94394254113516,
          -77.10895974673085
        ]
      }
    },
    {
      "type": "Feature",
      "properties": {
        "norad_id": 36493,
        "name": "IRIDIUM 33 DEB",
        "group": "iridium-33-debris",
        "lat": 36.91318474264328,
        "lon": -175.5298562582847,
        "alt_km": 679.8170310509722,
        "timestamp": "2025-12-22T18:58:53.818688+00:00",
        "meta_object_name": "IRIDIUM 33 DEB",
        "meta_object_id": "1997-051WK",
        "meta_epoch": "2025-12-22T06:51:32.746752",
        "meta_mean_motion": 14.65346114,
        "meta_eccentricity": 0.00091208,
        "meta_inclination": 86.3567,
        "meta_ra_of_asc_node": 7.4379,
        "meta_arg_of_pericenter": 330.6692,
        "meta_mean_anomaly": 29.4008,
        "meta_ephemeris_type": 0,
        "meta_classification_type": "U",
        "meta_norad_cat_id": 36493,
        "meta_element_set_no": 999,
        "meta_rev_at_epoch": 74658,
        "meta_bstar": 0.00137446,
        "meta_mean_motion_dot": 7.447e-05,
        "meta_mean_motion_ddot": 0,
        "tle_line1": "1 36493U 97051WK  25356.28579568  .00007447  00000+0  13745-2 0  9991",
        "tle_line2": "2 36493  86.3567   7.4379 0009120 330.6692  29.4008 14.65346114746581"
      },
      "geometry": {
        "type": "Point",
        "coordinates": [
          -175.5298562582847,
          36.91318474264328
        ]
      }
    },
    {
      "type": "Feature",
      "properties": {
        "norad_id": 37548,
        "name": "IRIDIUM 33 DEB",
        "group": "iridium-33-debris",
        "lat": -5.968341929081868,
        "lon": -140.62196950646214,
        "alt_km": 709.2392042250312,
        "timestamp": "2025-12-22T18:58:53.818698+00:00",
        "meta_object_name": "IRIDIUM 33 DEB",
        "meta_object_id": "1997-051XH",
        "meta_epoch": "2025-12-15T20:39:30.861504",
        "meta_mean_motion": 14.51326297,
        "meta_eccentricity": 0.00258157,
        "meta_inclination": 86.3522,
        "meta_ra_of_asc_node": 42.0105,
        "meta_arg_of_pericenter": 178.4192,
        "meta_mean_anomaly": 181.71,
        "meta_ephemeris_type": 0,
        "meta_classification_type": "U",
        "meta_norad_cat_id": 37548,
        "meta_element_set_no": 999,
        "meta_rev_at_epoch": 65577,
        "meta_bstar": 0.00067405053,
        "meta_mean_motion_dot": 2.715e-05,
        "meta_mean_motion_ddot": 0,
        "tle_line1": "1 37548U 97051XH  25349.86077386  .00002715  00000+0  67405-3 0  9996",
        "tle_line2": "2 37548  86.3522  42.0105 0025815 178.4192 181.7100 14.51326297655778"
      },
      "geometry": {
        "type": "Point",
        "coordinates": [
          -140.62196950646214,
          -5.968341929081868
        ]
      }
    },
    {
      "type": "Feature",
      "properties": {
        "norad_id": 37550,
        "name": "IRIDIUM 33 DEB",
        "group": "iridium-33-debris",
        "lat": 76.90167077661107,
        "lon": 35.221159951026735,
        "alt_km": 658.5405364769267,
        "timestamp": "2025-12-22T18:58:53.818708+00:00",
        "meta_object_name": "IRIDIUM 33 DEB",
        "meta_object_id": "1997-051XK",
        "meta_epoch": "2025-12-19T08:47:41.172864",
        "meta_mean_motion": 14.67293181,
        "meta_eccentricity": 0.0005615,
        "meta_inclination": 86.3772,
        "meta_ra_of_asc_node": 20.938,
        "meta_arg_of_pericenter": 96.5697,
        "meta_mean_anomaly": 263.6157,
        "meta_ephemeris_type": 0,
        "meta_classification_type": "U",
        "meta_norad_cat_id": 37550,
        "meta_element_set_no": 999,
        "meta_rev_at_epoch": 86430,
        "meta_bstar": 0.00085807,
        "meta_mean_motion_dot": 4.861e-05,
        "meta_mean_motion_ddot": 0,
        "tle_line1": "1 37550U 97051XK  25353.36644876  .00004861  00000+0  85807-3 0  9993",
        "tle_line2": "2 37550  86.3772  20.9380 0005615  96.5697 263.6157 14.67293181864309"
      },
      "geometry": {
        "type": "Point",
        "coordinates": [
          35.221159951026735,
          76.90167077661107
        ]
      }
    }
  ]
}